[{"OBJECT_NAME":"GOES 19","OBJECT_ID":"2024-119A","EPOCH":"2026-03-03T03:25:38.777088","MEAN_MOTION":1.00272211,"ECCENTRICITY":9.53e-5,"INCLINATION":0.0107,"RA_OF_ASC_NODE":254.0171,"ARG_OF_PERICENTER":121.1942,"MEAN_ANOMALY":121.9052,"EPHEMERIS_TYPE":0,"CLASSIFICATION_TYPE":"U","NORAD_CAT_ID":60133,"ELEMENT_SET_NO":999,"REV_AT_EPOCH":590,"BSTAR":0,"MEAN_MOTION_DOT":-2.64e-6,"MEAN_MOTION_DDOT":0},{"OBJECT_NAME":"FENGYUN 3H","OBJECT_ID":"2025-219A","EPOCH":"2026-03-03T03:08:31.722144","MEAN_MOTION":14.19930425,"ECCENTRICITY":0.0001415,"INCLINATION":98.6677,"RA_OF_ASC_NODE":5.015,"ARG_OF_PERICENTER":66.2057,"MEAN_ANOMALY":293.9268,"EPHEMERIS_TYPE":0,"CLASSIFICATION_TYPE":"U","NORAD_CAT_ID":65815,"ELEMENT_SET_NO":999,"REV_AT_EPOCH":2233,"BSTAR":6.102e-5,"MEAN_MOTION_DOT":8.6e-7,"MEAN_MOTION_DDOT":0}]
