GOES 19                 
1 60133U 24119A   26062.14280992 -.00000264  00000+0  00000+0 0  9992
2 60133   0.0107 254.0171 0000953 121.1942 121.9052  1.00272211  5900
FENGYUN 3H              
1 65815U 25219A   26062.13092271  .00000086  00000+0  61020-4 0  9991
2 65815  98.6677   5.0150 0001415  66.2057 293.9268 14.19930425 22335
